[Satellite]
VERSION=1.1
NAME=IRIDIUM 911 [-]
NICKNAME=IRIDIUM 911 [-]
TLE1=1 24842U 97030G   19317.53342294  .00000119  00000-0  28226-4 0  9997
TLE2=2 24842  86.4454 341.9854 0016201  56.1518 304.1223 14.45127681179936
STATUS=2
